start=new Date('2021-10-10T00:00:00.000Z').valueOf();
sats=[{"MEAN_MOTION":"15.06396904","PERIOD":"95.592","TIME_SYSTEM":"UTC","EPOCH":"2021-10-09T02:54:36.282528","RA_OF_ASC_NODE":"225.7220","OBJECT_TYPE":"PAYLOAD","EPHEMERIS_TYPE":"0","ELEMENT_SET_NO":"999","MEAN_ELEMENT_THEORY":"SGP4","COUNTRY_CODE":"US","SEMIMAJOR_AXIS":"6925.358","BSTAR":"0.00001586400000","TLE_LINE1":"1 44718U 19074F   21282.12125327 -.00000045  00000-0  15864-4 0  9991","SITE":"AFETR","RCS_SIZE":"LARGE","OBJECT_ID":"2019-074F","INCLINATION":"53.0539","GP_ID":"186647314","APOAPSIS":"548.369","REV_AT_EPOCH":"10569","PERIAPSIS":"546.078","FILE":"3153337","LAUNCH_DATE":"2019-11-11","DECAY_DATE":null,"ECCENTRICITY":"0.00016540","OBJECT_NAME":"STARLINK-1012","MEAN_MOTION_DDOT":"0.0000000000000","MEAN_ANOMALY":"298.0878","CENTER_NAME":"EARTH","ARG_OF_PERICENTER":"62.0278","MEAN_MOTION_DOT":"-0.00000045","TLE_LINE2":"2 44718  53.0539 225.7220 0001654  62.0278 298.0878 15.06396904105698","NORAD_CAT_ID":"44718","REF_FRAME":"TEME","CLASSIFICATION_TYPE":"U"},{"REF_FRAME":"TEME","NORAD_CAT_ID":"44719","TLE_LINE2":"2 44719  53.0527 225.0828 0001558  60.9633 299.1512 15.06392669106847","MEAN_MOTION_DOT":"-0.00002038","CLASSIFICATION_TYPE":"U","MEAN_ANOMALY":"299.1512","CENTER_NAME":"EARTH","MEAN_MOTION_DDOT":"0.0000000000000","ARG_OF_PERICENTER":"60.9633","LAUNCH_DATE":"2019-11-11","ECCENTRICITY":"0.00015580","OBJECT_NAME":"STARLINK-1013","DECAY_DATE":null,"PERIAPSIS":"546.157","REV_AT_EPOCH":"10684","FILE":"3153808","GP_ID":"186726766","RCS_SIZE":"LARGE","INCLINATION":"53.0527","OBJECT_ID":"2019-074G","SITE":"AFETR","APOAPSIS":"548.315","COUNTRY_CODE":"US","MEAN_ELEMENT_THEORY":"SGP4","BSTAR":"-0.00011798000000","TLE_LINE1":"1 44719U 19074G   21282.26132163 -.00002038  00000-0 -11798-3 0  9999","SEMIMAJOR_AXIS":"6925.371","RA_OF_ASC_NODE":"225.0828","ELEMENT_SET_NO":"999","EPHEMERIS_TYPE":"0","OBJECT_TYPE":"PAYLOAD","PERIOD":"95.593","MEAN_MOTION":"15.06392669","EPOCH":"2021-10-09T06:16:18.188832","TIME_SYSTEM":"UTC"},{"ARG_OF_PERICENTER":"65.2485","MEAN_MOTION_DDOT":"0.0000000000000","MEAN_ANOMALY":"294.8686","CENTER_NAME":"EARTH","CLASSIFICATION_TYPE":"U","MEAN_MOTION_DOT":"0.00000406","REF_FRAME":"TEME","NORAD_CAT_ID":"44720","TLE_LINE2":"2 44720  53.0536 223.8245 0001748  65.2485 294.8686 15.06396450105768","FILE":"3153808","REV_AT_EPOCH":"10576","PERIAPSIS":"546.014","DECAY_DATE":null,"ECCENTRICITY":"0.00017480","OBJECT_NAME":"STARLINK-1014","LAUNCH_DATE":"2019-11-11","BSTAR":"0.00004619300000","TLE_LINE1":"1 44720U 19074H   21282.54512878  .00000406  00000-0  46193-4 0  9990","SEMIMAJOR_AXIS":"6925.359","COUNTRY_CODE":"US","MEAN_ELEMENT_THEORY":"SGP4","APOAPSIS":"548.435","RCS_SIZE":"LARGE","INCLINATION":"53.0536","OBJECT_ID":"2019-074H","SITE":"AFETR","GP_ID":"186727513","TIME_SYSTEM":"UTC","EPOCH":"2021-10-09T13:04:59.126592","MEAN_MOTION":"15.06396450","PERIOD":"95.592","OBJECT_TYPE":"PAYLOAD","EPHEMERIS_TYPE":"0","ELEMENT_SET_NO":"999","RA_OF_ASC_NODE":"223.8245"},{"PERIAPSIS":"545.969","REV_AT_EPOCH":"10575","FILE":"3153808","LAUNCH_DATE":"2019-11-11","ECCENTRICITY":"0.00018030","OBJECT_NAME":"STARLINK-1015","DECAY_DATE":null,"MEAN_ANOMALY":"296.4615","CENTER_NAME":"EARTH","MEAN_MOTION_DDOT":"0.0000000000000","ARG_OF_PERICENTER":"63.6559","REF_FRAME":"TEME","NORAD_CAT_ID":"44721","TLE_LINE2":"2 44721  53.0533 223.8608 0001803  63.6559 296.4615 15.06398636105752","MEAN_MOTION_DOT":"-0.00000871","CLASSIFICATION_TYPE":"U","MEAN_MOTION":"15.06398636","PERIOD":"95.592","EPOCH":"2021-10-09T12:49:04.066176","TIME_SYSTEM":"UTC","RA_OF_ASC_NODE":"223.8608","ELEMENT_SET_NO":"999","EPHEMERIS_TYPE":"0","OBJECT_TYPE":"PAYLOAD","COUNTRY_CODE":"US","MEAN_ELEMENT_THEORY":"SGP4","TLE_LINE1":"1 44721U 19074J   21282.53407484 -.00000871  00000-0 -39578-4 0  9993","BSTAR":"-0.00003957800000","SEMIMAJOR_AXIS":"6925.353","GP_ID":"186725766","OBJECT_ID":"2019-074J","RCS_SIZE":"LARGE","INCLINATION":"53.0533","SITE":"AFETR","APOAPSIS":"548.466"},{"SEMIMAJOR_AXIS":"6925.343","BSTAR":"0.00001924900000","TLE_LINE1":"1 44722U 19074K   21282.80314729  .00000005  00000-0  19249-4 0  9993","MEAN_ELEMENT_THEORY":"SGP4","COUNTRY_CODE":"US","APOAPSIS":"548.387","SITE":"AFETR","INCLINATION":"53.0544","RCS_SIZE":"LARGE","OBJECT_ID":"2019-074K","GP_ID":"186726011","TIME_SYSTEM":"UTC","EPOCH":"2021-10-09T19:16:31.925856","PERIOD":"95.592","MEAN_MOTION":"15.06401836","EPHEMERIS_TYPE":"0","OBJECT_TYPE":"PAYLOAD","ELEMENT_SET_NO":"999","RA_OF_ASC_NODE":"222.6588","ARG_OF_PERICENTER":"66.9250","MEAN_MOTION_DDOT":"0.0000000000000","CENTER_NAME":"EARTH","MEAN_ANOMALY":"293.1919","CLASSIFICATION_TYPE":"U","MEAN_MOTION_DOT":"0.00000005","NORAD_CAT_ID":"44722","TLE_LINE2":"2 44722  53.0544 222.6588 0001702  66.9250 293.1919 15.06401836105805","REF_FRAME":"TEME","FILE":"3153808","REV_AT_EPOCH":"10580","PERIAPSIS":"546.029","DECAY_DATE":null,"ECCENTRICITY":"0.00017020","OBJECT_NAME":"STARLINK-1016","LAUNCH_DATE":"2019-11-11"},{"BSTAR":"0.00002128100000","TLE_LINE1":"1 44723U 19074L   21282.55250760  .00000035  00000-0  21281-4 0  9992","SEMIMAJOR_AXIS":"6925.377","COUNTRY_CODE":"US","MEAN_ELEMENT_THEORY":"SGP4","APOAPSIS":"548.397","GP_ID":"186727266","RCS_SIZE":"LARGE","OBJECT_ID":"2019-074L","INCLINATION":"53.0562","SITE":"AFETR","EPOCH":"2021-10-09T13:15:36.656640","TIME_SYSTEM":"UTC","MEAN_MOTION":"15.06390674","PERIOD":"95.593","ELEMENT_SET_NO":"999","EPHEMERIS_TYPE":"0","OBJECT_TYPE":"PAYLOAD","RA_OF_ASC_NODE":"223.7849","ARG_OF_PERICENTER":"66.7594","CENTER_NAME":"EARTH","MEAN_ANOMALY":"293.3570","MEAN_MOTION_DDOT":"0.0000000000000","CLASSIFICATION_TYPE":"U","REF_FRAME":"TEME","TLE_LINE2":"2 44723  53.0562 223.7849 0001667  66.7594 293.3570 15.06390674105764","NORAD_CAT_ID":"44723","MEAN_MOTION_DOT":"0.00000035","FILE":"3153808","PERIAPSIS":"546.088","REV_AT_EPOCH":"10576","ECCENTRICITY":"0.00016670","OBJECT_NAME":"STARLINK-1017","DECAY_DATE":null,"LAUNCH_DATE":"2019-11-11"},{"PERIAPSIS":"546.106","REV_AT_EPOCH":"10571","FILE":"3153808","LAUNCH_DATE":"2019-11-11","ECCENTRICITY":"0.00015810","OBJECT_NAME":"STARLINK-1019","DECAY_DATE":null,"MEAN_ANOMALY":"283.5561","CENTER_NAME":"EARTH","MEAN_MOTION_DDOT":"0.0000000000000","ARG_OF_PERICENTER":"76.5604","NORAD_CAT_ID":"44724","TLE_LINE2":"2 44724  53.0539 225.1423 0001581  76.5604 283.5561 15.06404028105714","REF_FRAME":"TEME","MEAN_MOTION_DOT":"-0.00000021","CLASSIFICATION_TYPE":"U","MEAN_MOTION":"15.06404028","PERIOD":"95.592","EPOCH":"2021-10-09T06:00:22.052736","TIME_SYSTEM":"UTC","RA_OF_ASC_NODE":"225.1423","ELEMENT_SET_NO":"999","EPHEMERIS_TYPE":"0","OBJECT_TYPE":"PAYLOAD","MEAN_ELEMENT_THEORY":"SGP4","COUNTRY_CODE":"US","SEMIMAJOR_AXIS":"6925.336","BSTAR":"0.00001752100000","TLE_LINE1":"1 44724U 19074M   21282.25025524 -.00000021  00000-0  17521-4 0  9996","GP_ID":"186727014","SITE":"AFETR","RCS_SIZE":"LARGE","OBJECT_ID":"2019-074M","INCLINATION":"53.0539","APOAPSIS":"548.296"},{"CLASSIFICATION_TYPE":"U","MEAN_MOTION_DOT":"0.00001635","REF_FRAME":"TEME","TLE_LINE2":"2 44725  53.0534 244.8167 0001661  79.3893 280.7283 15.06400622105449","NORAD_CAT_ID":"44725","ARG_OF_PERICENTER":"79.3893","MEAN_MOTION_DDOT":"0.0000000000000","MEAN_ANOMALY":"280.7283","CENTER_NAME":"EARTH","DECAY_DATE":null,"OBJECT_NAME":"STARLINK-1020","ECCENTRICITY":"0.00016610","LAUNCH_DATE":"2019-11-11","FILE":"3153808","REV_AT_EPOCH":"10544","PERIAPSIS":"546.061","APOAPSIS":"548.362","INCLINATION":"53.0534","RCS_SIZE":"LARGE","OBJECT_ID":"2019-074N","SITE":"AFETR","GP_ID":"186726266","BSTAR":"0.00012864000000","TLE_LINE1":"1 44725U 19074N   21282.32212464  .00001635  00000-0  12864-3 0  9991","SEMIMAJOR_AXIS":"6925.347","COUNTRY_CODE":"US","MEAN_ELEMENT_THEORY":"SGP4","EPHEMERIS_TYPE":"0","OBJECT_TYPE":"PAYLOAD","ELEMENT_SET_NO":"999","RA_OF_ASC_NODE":"244.8167","TIME_SYSTEM":"UTC","EPOCH":"2021-10-09T07:43:51.568896","MEAN_MOTION":"15.06400622","PERIOD":"95.592"},{"LAUNCH_DATE":"2019-11-11","OBJECT_NAME":"STARLINK-1021","ECCENTRICITY":"0.00015590","DECAY_DATE":null,"PERIAPSIS":"546.136","REV_AT_EPOCH":"10570","FILE":"3153337","REF_FRAME":"TEME","NORAD_CAT_ID":"44726","TLE_LINE2":"2 44726  53.0544 225.4650 0001559  81.6100 278.5066 15.06399386105703","MEAN_MOTION_DOT":"-0.00001295","CLASSIFICATION_TYPE":"U","MEAN_ANOMALY":"278.5066","CENTER_NAME":"EARTH","MEAN_MOTION_DDOT":"0.0000000000000","ARG_OF_PERICENTER":"81.6100","RA_OF_ASC_NODE":"225.4650","ELEMENT_SET_NO":"999","OBJECT_TYPE":"PAYLOAD","EPHEMERIS_TYPE":"0","PERIOD":"95.592","MEAN_MOTION":"15.06399386","EPOCH":"2021-10-09T04:19:31.040832","TIME_SYSTEM":"UTC","GP_ID":"186647315","RCS_SIZE":"LARGE","OBJECT_ID":"2019-074P","INCLINATION":"53.0544","SITE":"AFETR","APOAPSIS":"548.295","COUNTRY_CODE":"US","MEAN_ELEMENT_THEORY":"SGP4","BSTAR":"-0.00006806100000","TLE_LINE1":"1 44726U 19074P   21282.18022038 -.00001295  00000-0 -68061-4 0  9997","SEMIMAJOR_AXIS":"6925.350"},{"LAUNCH_DATE":"2019-11-11","DECAY_DATE":null,"ECCENTRICITY":"0.00015610","OBJECT_NAME":"STARLINK-1022","REV_AT_EPOCH":"10523","PERIAPSIS":"546.142","FILE":"3153808","MEAN_MOTION_DOT":"-0.00000523","NORAD_CAT_ID":"44727","TLE_LINE2":"2 44727  53.0549 263.1368 0001561  68.8964 291.2192 15.06396937105231","REF_FRAME":"TEME","CLASSIFICATION_TYPE":"U","MEAN_MOTION_DDOT":"0.0000000000000","CENTER_NAME":"EARTH","MEAN_ANOMALY":"291.2192","ARG_OF_PERICENTER":"68.8964","RA_OF_ASC_NODE":"263.1368","OBJECT_TYPE":"PAYLOAD","EPHEMERIS_TYPE":"0","ELEMENT_SET_NO":"999","MEAN_MOTION":"15.06396937","PERIOD":"95.592","TIME_SYSTEM":"UTC","EPOCH":"2021-10-09T16:21:23.283936","SITE":"AFETR","RCS_SIZE":"LARGE","INCLINATION":"53.0549","OBJECT_ID":"2019-074Q","GP_ID":"186726767","APOAPSIS":"548.304","MEAN_ELEMENT_THEORY":"SGP4","COUNTRY_CODE":"US","SEMIMAJOR_AXIS":"6925.358","BSTAR":"-0.00001619900000","TLE_LINE1":"1 44727U 19074Q   21282.68151949 -.00000523  00000-0 -16199-4 0  9995"}];
